{
  "type": "FeatureCollection",
  "features": [
    {
      "type": "Feature",
      "properties": {
        "norad_id": 46993,
        "name": "FENGYUN 1C DEB",
        "group": "fengyun-1c-debris",
        "lat": 0.3688669262439868,
        "lon": 112.27213606763974,
        "alt_km": 973.396865376003,
        "timestamp": "2025-12-20T14:38:02.260346+00:00",
        "meta_object_name": "FENGYUN 1C DEB",
        "meta_object_id": "1999-025EZT",
        "meta_epoch": "2025-12-18T13:48:38.255328",
        "meta_mean_motion": 13.69154142,
        "meta_eccentricity": 0.02625123,
        "meta_inclination": 98.7233,
        "meta_ra_of_asc_node": 110.4847,
        "meta_arg_of_pericenter": 283.8917,
        "meta_mean_anomaly": 132.0062,
        "meta_ephemeris_type": 0,
        "meta_classification_type": "U",
        "meta_norad_cat_id": 46993,
        "meta_element_set_no": 999,
        "meta_rev_at_epoch": 60337,
        "meta_bstar": 0.00040493614,
        "meta_mean_motion_dot": 4.06e-06,
        "meta_mean_motion_ddot": 0,
        "tle_line1": "1 46993U 99025EZT 25352.57544277  .00000406  00000+0  40494-3 0  9997",
        "tle_line2": "2 46993  98.7233 110.4847 0262512 283.8917 132.0062 13.69154142603375"
      },
      "geometry": {
        "type": "Point",
        "coordinates": [
          112.27213606763974,
          0.3688669262439868
        ]
      }
    },
    {
      "type": "Feature",
      "properties": {
        "norad_id": 46995,
        "name": "FENGYUN 1C DEB",
        "group": "fengyun-1c-debris",
        "lat": 61.8752721530688,
        "lon": -87.58407149856704,
        "alt_km": 804.8215100599054,
        "timestamp": "2025-12-20T14:38:02.260356+00:00",
        "meta_object_name": "FENGYUN 1C DEB",
        "meta_object_id": "1999-025EZV",
        "meta_epoch": "2025-12-18T04:55:40.819584",
        "meta_mean_motion": 13.86383578,
        "meta_eccentricity": 0.01891743,
        "meta_inclination": 98.5952,
        "meta_ra_of_asc_node": 73.7691,
        "meta_arg_of_pericenter": 103.3728,
        "meta_mean_anomaly": 258.8595,
        "meta_ephemeris_type": 0,
        "meta_classification_type": "U",
        "meta_norad_cat_id": 46995,
        "meta_element_set_no": 999,
        "meta_rev_at_epoch": 60544,
        "meta_bstar": 0.001968191,
        "meta_mean_motion_dot": 2.586e-05,
        "meta_mean_motion_ddot": 0,
        "tle_line1": "1 46995U 99025EZV 25352.20533356  .00002586  00000+0  19682-2 0  9990",
        "tle_line2": "2 46995  98.5952  73.7691 0189174 103.3728 258.8595 13.86383578605443"
      },
      "geometry": {
        "type": "Point",
        "coordinates": [
          -87.58407149856704,
          61.8752721530688
        ]
      }
    },
    {
      "type": "Feature",
      "properties": {
        "norad_id": 46997,
        "name": "FENGYUN 1C DEB",
        "group": "fengyun-1c-debris",
        "lat": 3.2548417334210322,
        "lon": -144.71669593498117,
        "alt_km": 813.5596478345396,
        "timestamp": "2025-12-20T14:38:02.260366+00:00",
        "meta_object_name": "FENGYUN 1C DEB",
        "meta_object_id": "1999-025EZX",
        "meta_epoch": "2025-12-14T20:44:05.032032",
        "meta_mean_motion": 14.28011803,
        "meta_eccentricity": 0.00246638,
        "meta_inclination": 98.5587,
        "meta_ra_of_asc_node": 29.1623,
        "meta_arg_of_pericenter": 329.7037,
        "meta_mean_anomaly": 205.3871,
        "meta_ephemeris_type": 0,
        "meta_classification_type": "U",
        "meta_norad_cat_id": 46997,
        "meta_element_set_no": 999,
        "meta_rev_at_epoch": 62481,
        "meta_bstar": 0.00094694744,
        "meta_mean_motion_dot": 2.314e-05,
        "meta_mean_motion_ddot": 0,
        "tle_line1": "1 46997U 99025EZX 25348.86394713  .00002314  00000+0  94695-3 0  9998",
        "tle_line2": "2 46997  98.5587  29.1623 0024663 329.7037 205.3871 14.28011803624819"
      },
      "geometry": {
        "type": "Point",
        "coordinates": [
          -144.71669593498117,
          3.2548417334210322
        ]
      }
    },
    {
      "type": "Feature",
      "properties": {
        "norad_id": 47001,
        "name": "FENGYUN 1C DEB",
        "group": "fengyun-1c-debris",
        "lat": 41.405676797637454,
        "lon": -118.38655895134728,
        "alt_km": 773.3149130247793,
        "timestamp": "2025-12-20T14:38:02.260386+00:00",
        "meta_object_name": "FENGYUN 1C DEB",
        "meta_object_id": "1999-025FAB",
        "meta_epoch": "2025-12-19T21:18:21.684672",
        "meta_mean_motion": 14.38523293,
        "meta_eccentricity": 0.005103,
        "meta_inclination": 99.3051,
        "meta_ra_of_asc_node": 52.5189,
        "meta_arg_of_pericenter": 28.2291,
        "meta_mean_anomaly": 332.1643,
        "meta_ephemeris_type": 0,
        "meta_classification_type": "U",
        "meta_norad_cat_id": 47001,
        "meta_element_set_no": 999,
        "meta_rev_at_epoch": 74017,
        "meta_bstar": 0.00095816,
        "meta_mean_motion_dot": 2.924e-05,
        "meta_mean_motion_ddot": 0,
        "tle_line1": "1 47001U 99025FAB 25353.88775098  .00002924  00000+0  95816-3 0  9995",
        "tle_line2": "2 47001  99.3051  52.5189 0051030  28.2291 332.1643 14.38523293740175"
      },
      "geometry": {
        "type": "Point",
        "coordinates": [
          -118.38655895134728,
          41.405676797637454
        ]
      }
    },
    {
      "type": "Feature",
      "properties": {
        "norad_id": 47005,
        "name": "FENGYUN 1C DEB",
        "group": "fengyun-1c-debris",
        "lat": 22.311848673256705,
        "lon": -91.94442381650249,
        "alt_km": 834.0276341692434,
        "timestamp": "2025-12-20T14:38:02.260397+00:00",
        "meta_object_name": "FENGYUN 1C DEB",
        "meta_object_id": "1999-025FAF",
        "meta_epoch": "2025-12-03T11:49:12.815616",
        "meta_mean_motion": 14.10913141,
        "meta_eccentricity": 0.00635736,
        "meta_inclination": 99.6019,
        "meta_ra_of_asc_node": 65.7889,
        "meta_arg_of_pericenter": 267.3996,
        "meta_mean_anomaly": 108.1197,
        "meta_ephemeris_type": 0,
        "meta_classification_type": "U",
        "meta_norad_cat_id": 47005,
        "meta_element_set_no": 999,
        "meta_rev_at_epoch": 82637,
        "meta_bstar": 0.0032335345,
        "meta_mean_motion_dot": 5.865e-05,
        "meta_mean_motion_ddot": 0,
        "tle_line1": "1 47005U 99025FAF 25337.49250944  .00005865  00000+0  32335-2 0  9999",
        "tle_line2": "2 47005  99.6019  65.7889 0063573 267.3996 108.1197 14.10913141826379"
      },
      "geometry": {
        "type": "Point",
        "coordinates": [
          -91.94442381650249,
          22.311848673256705
        ]
      }
    },
    {
      "type": "Feature",
      "properties": {
        "norad_id": 47007,
        "name": "FENGYUN 1C DEB",
        "group": "fengyun-1c-debris",
        "lat": -73.61537003962609,
        "lon": 6.359999406751167,
        "alt_km": 1032.2008661417121,
        "timestamp": "2025-12-20T14:38:02.260407+00:00",
        "meta_object_name": "FENGYUN 1C DEB",
        "meta_object_id": "1999-025FAH",
        "meta_epoch": "2025-12-16T09:44:03.870240",
        "meta_mean_motion": 13.97251993,
        "meta_eccentricity": 0.02368252,
        "meta_inclination": 98.2082,
        "meta_ra_of_asc_node": 211.9995,
        "meta_arg_of_pericenter": 43.4139,
        "meta_mean_anomaly": 318.5411,
        "meta_ephemeris_type": 0,
        "meta_classification_type": "U",
        "meta_norad_cat_id": 47007,
        "meta_element_set_no": 999,
        "meta_rev_at_epoch": 78900,
        "meta_bstar": 0.0020308596,
        "meta_mean_motion_dot": 3.573e-05,
        "meta_mean_motion_ddot": 0,
        "tle_line1": "1 47007U 99025FAH 25350.40560035  .00003573  00000+0  20309-2 0  9994",
        "tle_line2": "2 47007  98.2082 211.9995 0236825  43.4139 318.5411 13.97251993789001"
      },
      "geometry": {
        "type": "Point",
        "coordinates": [
          6.359999406751167,
          -73.61537003962609
        ]
      }
    },
    {
      "type": "Feature",
      "properties": {
        "norad_id": 47009,
        "name": "FENGYUN 1C DEB",
        "group": "fengyun-1c-debris",
        "lat": -46.62736210933605,
        "lon": -12.929522128723864,
        "alt_km": 1039.6668125527867,
        "timestamp": "2025-12-20T14:38:02.260438+00:00",
        "meta_object_name": "FENGYUN 1C DEB",
        "meta_object_id": "1999-025FAK",
        "meta_epoch": "2025-12-02T05:09:31.123584",
        "meta_mean_motion": 13.37303446,
        "meta_eccentricity": 0.0352227,
        "meta_inclination": 98.9376,
        "meta_ra_of_asc_node": 321.2954,
        "meta_arg_of_pericenter": 285.6992,
        "meta_mean_anomaly": 70.555,
        "meta_ephemeris_type": 0,
        "meta_classification_type": "U",
        "meta_norad_cat_id": 47009,
        "meta_element_set_no": 999,
        "meta_rev_at_epoch": 58668,
        "meta_bstar": 0.00057132,
        "meta_mean_motion_dot": 3.87e-06,
        "meta_mean_motion_ddot": 0,
        "tle_line1": "1 47009U 99025FAK 25336.21494356  .00000387  00000+0  57132-3 0  9996",
        "tle_line2": "2 47009  98.9376 321.2954 0352227 285.6992  70.5550 13.37303446586681"
      },
      "geometry": {
        "type": "Point",
        "coordinates": [
          -12.929522128723864,
          -46.62736210933605
        ]
      }
    }
  ]
}